[{"OBJECT_NAME":"STARLINK-6260","OBJECT_ID":"2023-061AU","EPOCH":"2026-03-08T13:59:33.624384","MEAN_MOTION":15.02527641,"ECCENTRICITY":0.0001585,"INCLINATION":43.0055,"RA_OF_ASC_NODE":177.8685,"ARG_OF_PERICENTER":278.7098,"MEAN_ANOMALY":81.3565,"EPHEMERIS_TYPE":0,"CLASSIFICATION_TYPE":"U","NORAD_CAT_ID":56416,"ELEMENT_SET_NO":999,"REV_AT_EPOCH":15688,"BSTAR":0.00011443709,"MEAN_MOTION_DOT":1.342e-5,"MEAN_MOTION_DDOT":0},{"OBJECT_NAME":"CZ-6A DEB","OBJECT_ID":"2024-140AK","EPOCH":"2026-03-09T15:33:22.779648","MEAN_MOTION":14.91455209,"ECCENTRICITY":0.0138813,"INCLINATION":89.0614,"RA_OF_ASC_NODE":284.4893,"ARG_OF_PERICENTER":156.7754,"MEAN_ANOMALY":203.9833,"EPHEMERIS_TYPE":0,"CLASSIFICATION_TYPE":"U","NORAD_CAT_ID":60634,"ELEMENT_SET_NO":999,"REV_AT_EPOCH":8558,"BSTAR":0.0013703,"MEAN_MOTION_DOT":0.00016538,"MEAN_MOTION_DDOT":0}]
